ONEWEB-0125             
1 47271U 20100P   25230.51215862  .00000029  00000+0  44878-4 0  9991
2 47271  87.8864  50.8020 0002009  95.0774 265.0584 13.12441360224937
ONEWEB-0126             
1 47272U 20100Q   25230.53337700 -.00000312  00000+0 -90260-3 0  9992
2 47272  87.8876  50.8176 0001662  91.2930 268.8389 13.12444760225009
ONEWEB-0127             
1 47273U 20100R   25230.57542392  .00000448  00000+0  12092-2 0  9996
2 47273  87.8866  50.8230 0001608  89.5488 270.5825 13.12441530225038
ONEWEB-0128             
1 47274U 20100S   25230.52188711 -.00000289  00000+0 -83956-3 0  9996
2 47274  87.8858  50.8590 0001684  81.9142 278.2177 13.12441346225047
ONEWEB-0129             
1 47275U 20100T   25230.57704728  .00000390  00000+0  10481-2 0  9997
2 47275  87.8863  50.7915 0000647 117.0578 243.0616 13.12441237224985
ONEWEB-0130             
1 47276U 20100U   25230.52837956 -.00000380  00000+0 -10905-2 0  9995
2 47276  87.8856  50.7990 0001683  86.5119 273.6202 13.12442417224940
ONEWEB-0131             
1 47277U 20100V   25230.52513936 -.00000357  00000+0 -10276-2 0  9990
2 47277  87.8864  50.8284 0001746  86.2183 273.9145 13.12441917224982
ONEWEB-0132             
1 47278U 20100W   25230.55434101  .00000184  00000+0  47562-3 0  9995
2 47278  87.8864  50.8249 0001983  88.6551 271.4804 13.12443604224881
ONEWEB-0133             
1 47279U 20100X   25230.57041975  .00000467  00000+0  12627-2 0  9998
2 47279  87.8850  50.7944 0001782  84.5174 275.6158 13.12441889225041
ONEWEB-0134             
1 47280U 20100Y   25230.53973546 -.00000221  00000+0 -64884-3 0  9997
2 47280  87.8860  50.7850 0001577  82.6048 277.5259 13.12443320225013
ONEWEB-0135             
1 47281U 20100Z   25230.51053266  .00000065  00000+0  14636-3 0  9998
2 47281  87.8864  50.8305 0001618  74.9044 285.2264 13.12443219225031
ONEWEB-0136             
1 47282U 20100AA  25230.52999477 -.00000369  00000+0 -10600-2 0  9998
2 47282  87.8864  50.7952 0001386  79.0421 281.0863 13.12443417224966
ONEWEB-0137             
1 47283U 20100AB  25230.56407444  .00000487  00000+0  13170-2 0  9995
2 47283  87.8862  50.7945 0001725  96.0903 264.0422 13.12442864224875
ONEWEB-0138             
1 47284U 20100AC  25230.54297319 -.00000191  00000+0 -56759-3 0  9997
2 47284  87.8862  50.8086 0001638  88.4850 271.6466 13.12443930224958
ONEWEB-0139             
1 47285U 20100AD  25230.58206599  .00000252  00000+0  66613-3 0  9998
2 47285  87.8856  50.7935 0001746  90.0620 270.0709 13.12441330225033
ONEWEB-0140             
1 47286U 20100AE  25230.53648435 -.00000348  00000+0 -10027-2 0  9998
2 47286  87.8856  50.7866 0001675  87.4761 272.6559 13.12443578224995
ONEWEB-0141             
1 47287U 20100AF  25230.58177424  .00000284  00000+0  75515-3 0  9990
2 47287  87.8850  50.7939 0001743 100.6046 259.5279 13.12443464224987
