[{"OBJECT_NAME":"ONEWEB-0125","OBJECT_ID":"2020-100P","EPOCH":"2025-08-18T12:17:30.504768","MEAN_MOTION":13.1244136,"ECCENTRICITY":0.0002009,"INCLINATION":87.8864,"RA_OF_ASC_NODE":50.802,"ARG_OF_PERICENTER":95.0774,"MEAN_ANOMALY":265.0584,"EPHEMERIS_TYPE":0,"CLASSIFICATION_TYPE":"U","NORAD_CAT_ID":47271,"ELEMENT_SET_NO":999,"REV_AT_EPOCH":22493,"BSTAR":4.4878e-5,"MEAN_MOTION_DOT":2.9e-7,"MEAN_MOTION_DDOT":0},{"OBJECT_NAME":"ONEWEB-0126","OBJECT_ID":"2020-100Q","EPOCH":"2025-08-18T12:48:03.772800","MEAN_MOTION":13.1244476,"ECCENTRICITY":0.0001662,"INCLINATION":87.8876,"RA_OF_ASC_NODE":50.8176,"ARG_OF_PERICENTER":91.293,"MEAN_ANOMALY":268.8389,"EPHEMERIS_TYPE":0,"CLASSIFICATION_TYPE":"U","NORAD_CAT_ID":47272,"ELEMENT_SET_NO":999,"REV_AT_EPOCH":22500,"BSTAR":-0.0009026,"MEAN_MOTION_DOT":-3.12e-6,"MEAN_MOTION_DDOT":0},{"OBJECT_NAME":"ONEWEB-0127","OBJECT_ID":"2020-100R","EPOCH":"2025-08-18T13:48:36.626688","MEAN_MOTION":13.1244153,"ECCENTRICITY":0.0001608,"INCLINATION":87.8866,"RA_OF_ASC_NODE":50.823,"ARG_OF_PERICENTER":89.5488,"MEAN_ANOMALY":270.5825,"EPHEMERIS_TYPE":0,"CLASSIFICATION_TYPE":"U","NORAD_CAT_ID":47273,"ELEMENT_SET_NO":999,"REV_AT_EPOCH":22503,"BSTAR":0.0012092,"MEAN_MOTION_DOT":4.48e-6,"MEAN_MOTION_DDOT":0},{"OBJECT_NAME":"ONEWEB-0128","OBJECT_ID":"2020-100S","EPOCH":"2025-08-18T12:31:31.046304","MEAN_MOTION":13.12441346,"ECCENTRICITY":0.0001684,"INCLINATION":87.8858,"RA_OF_ASC_NODE":50.859,"ARG_OF_PERICENTER":81.9142,"MEAN_ANOMALY":278.2177,"EPHEMERIS_TYPE":0,"CLASSIFICATION_TYPE":"U","NORAD_CAT_ID":47274,"ELEMENT_SET_NO":999,"REV_AT_EPOCH":22504,"BSTAR":-0.00083956,"MEAN_MOTION_DOT":-2.89e-6,"MEAN_MOTION_DDOT":0},{"OBJECT_NAME":"ONEWEB-0129","OBJECT_ID":"2020-100T","EPOCH":"2025-08-18T13:50:56.884992","MEAN_MOTION":13.12441237,"ECCENTRICITY":6.47e-5,"INCLINATION":87.8863,"RA_OF_ASC_NODE":50.7915,"ARG_OF_PERICENTER":117.0578,"MEAN_ANOMALY":243.0616,"EPHEMERIS_TYPE":0,"CLASSIFICATION_TYPE":"U","NORAD_CAT_ID":47275,"ELEMENT_SET_NO":999,"REV_AT_EPOCH":22498,"BSTAR":0.0010481,"MEAN_MOTION_DOT":3.9e-6,"MEAN_MOTION_DDOT":0},{"OBJECT_NAME":"ONEWEB-0130","OBJECT_ID":"2020-100U","EPOCH":"2025-08-18T12:40:51.993984","MEAN_MOTION":13.12442417,"ECCENTRICITY":0.0001683,"INCLINATION":87.8856,"RA_OF_ASC_NODE":50.799,"ARG_OF_PERICENTER":86.5119,"MEAN_ANOMALY":273.6202,"EPHEMERIS_TYPE":0,"CLASSIFICATION_TYPE":"U","NORAD_CAT_ID":47276,"ELEMENT_SET_NO":999,"REV_AT_EPOCH":22494,"BSTAR":-0.0010905,"MEAN_MOTION_DOT":-3.8e-6,"MEAN_MOTION_DDOT":0},{"OBJECT_NAME":"ONEWEB-0131","OBJECT_ID":"2020-100V","EPOCH":"2025-08-18T12:36:12.040704","MEAN_MOTION":13.12441917,"ECCENTRICITY":0.0001746,"INCLINATION":87.8864,"RA_OF_ASC_NODE":50.8284,"ARG_OF_PERICENTER":86.2183,"MEAN_ANOMALY":273.9145,"EPHEMERIS_TYPE":0,"CLASSIFICATION_TYPE":"U","NORAD_CAT_ID":47277,"ELEMENT_SET_NO":999,"REV_AT_EPOCH":22498,"BSTAR":-0.0010276,"MEAN_MOTION_DOT":-3.57e-6,"MEAN_MOTION_DDOT":0},{"OBJECT_NAME":"ONEWEB-0132","OBJECT_ID":"2020-100W","EPOCH":"2025-08-18T13:18:15.063264","MEAN_MOTION":13.12443604,"ECCENTRICITY":0.0001983,"INCLINATION":87.8864,"RA_OF_ASC_NODE":50.8249,"ARG_OF_PERICENTER":88.6551,"MEAN_ANOMALY":271.4804,"EPHEMERIS_TYPE":0,"CLASSIFICATION_TYPE":"U","NORAD_CAT_ID":47278,"ELEMENT_SET_NO":999,"REV_AT_EPOCH":22488,"BSTAR":0.00047562,"MEAN_MOTION_DOT":1.84e-6,"MEAN_MOTION_DDOT":0},{"OBJECT_NAME":"ONEWEB-0133","OBJECT_ID":"2020-100X","EPOCH":"2025-08-18T13:41:24.266400","MEAN_MOTION":13.12441889,"ECCENTRICITY":0.0001782,"INCLINATION":87.885,"RA_OF_ASC_NODE":50.7944,"ARG_OF_PERICENTER":84.5174,"MEAN_ANOMALY":275.6158,"EPHEMERIS_TYPE":0,"CLASSIFICATION_TYPE":"U","NORAD_CAT_ID":47279,"ELEMENT_SET_NO":999,"REV_AT_EPOCH":22504,"BSTAR":0.0012627,"MEAN_MOTION_DOT":4.67e-6,"MEAN_MOTION_DDOT":0},{"OBJECT_NAME":"ONEWEB-0134","OBJECT_ID":"2020-100Y","EPOCH":"2025-08-18T12:57:13.143744","MEAN_MOTION":13.1244332,"ECCENTRICITY":0.0001577,"INCLINATION":87.886,"RA_OF_ASC_NODE":50.785,"ARG_OF_PERICENTER":82.6048,"MEAN_ANOMALY":277.5259,"EPHEMERIS_TYPE":0,"CLASSIFICATION_TYPE":"U","NORAD_CAT_ID":47280,"ELEMENT_SET_NO":999,"REV_AT_EPOCH":22501,"BSTAR":-0.00064884,"MEAN_MOTION_DOT":-2.21e-6,"MEAN_MOTION_DDOT":0},{"OBJECT_NAME":"ONEWEB-0135","OBJECT_ID":"2020-100Z","EPOCH":"2025-08-18T12:15:10.021824","MEAN_MOTION":13.12443219,"ECCENTRICITY":0.0001618,"INCLINATION":87.8864,"RA_OF_ASC_NODE":50.8305,"ARG_OF_PERICENTER":74.9044,"MEAN_ANOMALY":285.2264,"EPHEMERIS_TYPE":0,"CLASSIFICATION_TYPE":"U","NORAD_CAT_ID":47281,"ELEMENT_SET_NO":999,"REV_AT_EPOCH":22503,"BSTAR":0.00014636,"MEAN_MOTION_DOT":6.5e-7,"MEAN_MOTION_DDOT":0},{"OBJECT_NAME":"ONEWEB-0136","OBJECT_ID":"2020-100AA","EPOCH":"2025-08-18T12:43:11.548128","MEAN_MOTION":13.12443417,"ECCENTRICITY":0.0001386,"INCLINATION":87.8864,"RA_OF_ASC_NODE":50.7952,"ARG_OF_PERICENTER":79.0421,"MEAN_ANOMALY":281.0863,"EPHEMERIS_TYPE":0,"CLASSIFICATION_TYPE":"U","NORAD_CAT_ID":47282,"ELEMENT_SET_NO":999,"REV_AT_EPOCH":22496,"BSTAR":-0.00106,"MEAN_MOTION_DOT":-3.69e-6,"MEAN_MOTION_DDOT":0},{"OBJECT_NAME":"ONEWEB-0137","OBJECT_ID":"2020-100AB","EPOCH":"2025-08-18T13:32:16.031616","MEAN_MOTION":13.12442864,"ECCENTRICITY":0.0001725,"INCLINATION":87.8862,"RA_OF_ASC_NODE":50.7945,"ARG_OF_PERICENTER":96.0903,"MEAN_ANOMALY":264.0422,"EPHEMERIS_TYPE":0,"CLASSIFICATION_TYPE":"U","NORAD_CAT_ID":47283,"ELEMENT_SET_NO":999,"REV_AT_EPOCH":22487,"BSTAR":0.001317,"MEAN_MOTION_DOT":4.87e-6,"MEAN_MOTION_DDOT":0},{"OBJECT_NAME":"ONEWEB-0138","OBJECT_ID":"2020-100AC","EPOCH":"2025-08-18T13:01:52.883616","MEAN_MOTION":13.1244393,"ECCENTRICITY":0.0001638,"INCLINATION":87.8862,"RA_OF_ASC_NODE":50.8086,"ARG_OF_PERICENTER":88.485,"MEAN_ANOMALY":271.6466,"EPHEMERIS_TYPE":0,"CLASSIFICATION_TYPE":"U","NORAD_CAT_ID":47284,"ELEMENT_SET_NO":999,"REV_AT_EPOCH":22495,"BSTAR":-0.00056759,"MEAN_MOTION_DOT":-1.91e-6,"MEAN_MOTION_DDOT":0},{"OBJECT_NAME":"ONEWEB-0139","OBJECT_ID":"2020-100AD","EPOCH":"2025-08-18T13:58:10.501536","MEAN_MOTION":13.1244133,"ECCENTRICITY":0.0001746,"INCLINATION":87.8856,"RA_OF_ASC_NODE":50.7935,"ARG_OF_PERICENTER":90.062,"MEAN_ANOMALY":270.0709,"EPHEMERIS_TYPE":0,"CLASSIFICATION_TYPE":"U","NORAD_CAT_ID":47285,"ELEMENT_SET_NO":999,"REV_AT_EPOCH":22503,"BSTAR":0.00066613,"MEAN_MOTION_DOT":2.52e-6,"MEAN_MOTION_DDOT":0},{"OBJECT_NAME":"ONEWEB-0140","OBJECT_ID":"2020-100AE","EPOCH":"2025-08-18T12:52:32.247840","MEAN_MOTION":13.12443578,"ECCENTRICITY":0.0001675,"INCLINATION":87.8856,"RA_OF_ASC_NODE":50.7866,"ARG_OF_PERICENTER":87.4761,"MEAN_ANOMALY":272.6559,"EPHEMERIS_TYPE":0,"CLASSIFICATION_TYPE":"U","NORAD_CAT_ID":47286,"ELEMENT_SET_NO":999,"REV_AT_EPOCH":22499,"BSTAR":-0.0010027,"MEAN_MOTION_DOT":-3.48e-6,"MEAN_MOTION_DDOT":0},{"OBJECT_NAME":"ONEWEB-0141","OBJECT_ID":"2020-100AF","EPOCH":"2025-08-18T13:57:45.294336","MEAN_MOTION":13.12443464,"ECCENTRICITY":0.0001743,"INCLINATION":87.885,"RA_OF_ASC_NODE":50.7939,"ARG_OF_PERICENTER":100.6046,"MEAN_ANOMALY":259.5279,"EPHEMERIS_TYPE":0,"CLASSIFICATION_TYPE":"U","NORAD_CAT_ID":47287,"ELEMENT_SET_NO":999,"REV_AT_EPOCH":22498,"BSTAR":0.00075515,"MEAN_MOTION_DOT":2.84e-6,"MEAN_MOTION_DDOT":0}]
